HAWK-8B                 
1 59445U 24066D   26068.47430810  .00002353  00000+0  21133-3 0  9999
2 59445  45.6192  73.7012 0004280 258.0487 101.9914 14.98769819104860
STARLINK-36173          
1 67210U 25304U   26068.68512752  .00004030  00000+0  33818-3 0  9990
2 67210  70.0013 174.4831 0003605 269.9682  90.1065 14.99143783 13883
